EUTELSAT 21B            
1 38992U 12062B   25258.80297694  .00000113  00000+0  00000+0 0  9992
2 38992   0.0705   8.1282 0002777 172.8480 124.7096  1.00274239 47074
EUTELSAT 70B            
1 39020U 12069A   25258.82850291 -.00000062  00000+0  00000+0 0  9996
2 39020   0.0664 344.8977 0004046 192.1690 186.7335  1.00273906 46759
EUTELSAT 117 WEST A     
1 39122U 13012A   25258.63276284 -.00000030  00000+0  00000+0 0  9996
2 39122   0.0313 293.1823 0002930 253.7516 278.9125  1.00272927 45684
EUTELSAT 7B             
1 39163U 13022A   25258.80003027  .00000030  00000+0  00000+0 0  9993
2 39163   0.0674 352.2108 0000742  11.2647 286.5230  1.00271407 45205
EXPRESS-AT1             
1 39612U 14010A   25259.04149619  .00000060  00000+0  00000+0 0  9998
2 39612   0.0184 200.3883 0000348 323.0475 262.7501  1.00272202 42060
EXPRESS-AT2             
1 39613U 14010B   25258.96911770 -.00000299  00000+0  00000+0 0  9999
2 39613   0.0172 238.2197 0000073  51.1796 194.4983  1.00272718 41758
EUTELSAT 3B             
1 39773U 14030A   25258.79933692  .00000003  00000+0  00000+0 0  9998
2 39773   0.0643 343.2536 0004583 194.1039 108.5087  1.00271955 41315
EUTELSAT 115 WEST B     
1 40425U 15010B   25258.70452316 -.00000042  00000+0  00000+0 0  9997
2 40425   0.0363 336.3049 0000166  95.3772  61.9718  1.00271308 38648
